IRIDIUM 17 [-]          
1 24870U 97034B   17346.30440101  .00000127  00000-0  36908-4 0  9998
2 24870  86.3954 305.5234 0002733  46.6733 313.4691 14.35792740 69738
